OBJECT_NAME,OBJECT_ID,EPOCH,MEAN_MOTION,ECCENTRICITY,INCLINATION,RA_OF_ASC_NODE,ARG_OF_PERICENTER,MEAN_ANOMALY,EPHEMERIS_TYPE,CLASSIFICATION_TYPE,NORAD_CAT_ID,ELEMENT_SET_NO,REV_AT_EPOCH,BSTAR,MEAN_MOTION_DOT,MEAN_MOTION_DDOT
BEIDOU-3S IGSO-1S (C31),2015-019A,2026-06-30T18:56:21.441984,1.00249006,.00391773,49.1687,295.2980,191.9393,165.8805,0,U,40549,999,4120,0,-.147E-5,0
GPS BIIF-10 (PRN 08),2015-033A,2026-06-30T16:23:46.759776,2.00555717,.01151768,53.9720,266.5298,30.2516,330.4770,0,U,40730,999,8026,0,-.6E-7,0
BEIDOU-3S M2S (C58),2015-037A,2026-07-01T06:49:02.741664,1.86232366,.00087221,54.8572,301.5607,257.8028,102.1122,0,U,40748,999,7438,0,-.66E-6,0
BEIDOU-3S M1S (C57),2015-037B,2026-07-01T11:45:13.356288,1.86255000,.00031011,54.8538,301.5415,62.8434,297.2018,0,U,40749,999,7439,0,-.65E-6,0
GSAT0206 (GALILEO 10),2015-045B,2026-07-01T12:50:49.477632,1.70473858,.00016203,54.9416,221.2080,340.3144,19.7690,0,U,40890,999,6728,0,.74E-6,0
BEIDOU-3S IGSO-2S (C56),2015-053A,2026-06-30T16:52:41.290752,1.00257046,.00656789,49.1997,258.6211,193.2539,174.4507,0,U,40938,999,3949,0,-.93E-6,0
GPS BIIF-11 (PRN 10),2015-062A,2026-06-29T17:47:48.867648,2.00567192,.01122445,56.9678,30.3277,230.9838,128.0695,0,U,41019,999,7808,0,-.66E-6,0
GSAT-15 (GAGAN/PRN 139),2015-065A,2026-07-01T11:12:39.155040,1.00269403,.00045084,0.0436,255.5440,184.2497,101.3855,0,U,41028,999,3894,0,-.247E-5,0
GSAT0209 (GALILEO 12),2015-079A,2026-06-28T04:24:50.829696,1.70473803,.00050857,55.8335,100.9603,347.1897,12.7761,0,U,41174,999,6496,0,-.33E-6,0
GSAT0208 (GALILEO 11),2015-079B,2026-06-30T03:56:11.281344,1.70473794,.00047212,55.8332,100.9029,349.8259,10.1551,0,U,41175,999,6541,0,-.23E-6,0
IRNSS-1E,2016-003A,2026-06-29T19:51:21.425184,1.00272765,.00192006,33.2608,59.5670,178.7998,89.1855,0,U,41241,999,3820,0,-.31E-5,0
GPS BIIF-12 (PRN 32),2016-007A,2026-06-29T20:00:04.300704,2.00551193,.00956433,55.5312,88.9584,247.1499,111.8568,0,U,41328,999,7609,0,-.37E-6,0
COSMOS 2514 (751),2016-008A,2026-07-01T08:42:40.938048,2.13102721,.00118194,65.0124,312.5203,199.5680,160.3868,0,U,41330,999,8092,0,-.54E-6,0
BEIDOU-2 IGSO-6 (C13),2016-021A,2026-06-26T02:38:38.671584,1.00258926,.0057558,60.2385,37.9495,231.0163,137.2672,0,U,41434,999,3757,0,-.145E-5,0
IRNSS-1G,2016-027A,2026-07-01T12:56:04.953408,1.00280378,.00058083,5.2301,97.1430,4.7494,141.2172,0,U,41469,999,3732,0,-.327E-5,0
GSAT0211 (GALILEO 14),2016-030A,2026-06-27T22:35:47.691744,1.70474008,.00031164,55.0927,221.3989,320.4926,39.5816,0,U,41549,999,6285,0,.69E-6,0
GSAT0210 (GALILEO 13),2016-030B,2026-07-01T03:09:38.170656,1.70474036,.00082358,55.0900,221.3091,256.6368,103.3630,0,U,41550,999,6290,0,.74E-6,0
BEIDOU-2 G7 (C03),2016-037A,2026-07-01T14:33:17.229888,1.00270064,.00067956,1.7545,69.4297,3.4234,175.6735,0,U,41586,999,703,0,-.344E-5,0
EUTELSAT 117 WEST B (WAAS/PRN 131),2016-038B,2026-07-01T11:27:38.650752,1.00272874,.00001207,0.0045,199.2910,75.4259,59.7184,0,U,41589,999,3680,0,-.1E-7,0
GSAT0207 (GALILEO 15),2016-069A,2026-06-26T17:13:02.065728,1.70473700,.00050068,55.5042,100.8225,333.0982,26.8500,0,U,41859,999,5956,0,-.38E-6,0
GSAT0212 (GALILEO 16),2016-069B,2026-06-28T07:56:01.576320,1.70473934,.00044344,55.5028,100.7730,6.1382,353.8467,0,U,41860,999,5984,0,-.33E-6,0
GSAT0213 (GALILEO 17),2016-069C,2026-06-28T02:40:06.685536,1.70474290,.00045371,55.5047,100.7870,315.9585,43.9839,0,U,41861,999,5970,0,-.34E-6,0
GSAT0214 (GALILEO 18),2016-069D,2026-07-01T04:34:09.619968,1.70473880,.00035565,55.5050,100.6945,328.0660,31.9108,0,U,41862,999,5988,0,-.17E-6,0
SES-15 (WAAS/PRN 133),2017-026A,2026-07-01T08:16:59.342592,1.00271672,.00011513,0.0221,331.7918,169.2992,133.4012,0,U,42709,999,757,0,.7E-6,0
QZS-2 (QZSS/PRN 194),2017-028A,2026-07-01T11:19:35.470848,1.00280245,.07587467,39.4058,242.9433,269.4314,79.2051,0,U,42738,999,776,0,-.11E-5,0
QZS-3 (QZSS/PRN 199),2017-048A,2026-07-01T12:55:20.025408,1.00269544,.00022672,0.0753,137.4065,320.8305,142.2185,0,U,42917,999,3240,0,-.338E-5,0
COSMOS 2522 (752),2017-055A,2026-06-30T17:33:16.197408,2.13101886,.00108583,64.0804,191.4232,240.8313,119.0975,0,U,42939,999,6826,0,.8E-6,0
QZS-4 (QZSS/PRN 195),2017-062A,2026-06-30T07:50:44.718144,1.00295775,.07467097,40.1009,343.3188,268.3129,282.6055,0,U,42965,999,3193,0,-.331E-5,0
BEIDOU-3 M1 (C19),2017-069A,2026-06-29T11:35:35.102688,1.86231574,.00098882,56.7025,62.6794,326.2778,33.7184,0,U,43001,999,5883,0,-.55E-6,0
BEIDOU-3 M2 (C20),2017-069B,2026-06-28T08:20:59.410176,1.86230827,.0008853,56.7011,62.7525,353.2945,6.7468,0,U,43002,999,5880,0,-.66E-6,0
GSAT0215 (GALILEO 19),2017-079A,2026-06-28T03:51:18.726624,1.70474711,.00031009,55.0711,221.2046,263.9664,96.0952,0,U,43055,999,5317,0,.69E-6,0
